NORAD_CAT_ID,OBJECT_NAME,OBJECT_TYPE,EPOCH,MEAN_MOTION,ECCENTRICITY,INCLINATION,RA_OF_ASC_NODE,ARG_OF_PERICENTER,MEAN_ANOMALY,BSTAR,MEAN_MOTION_DOT,MEAN_MOTION_DDOT,TLE_LINE0,TLE_LINE1,TLE_LINE2,SEMIMAJOR_AXIS,PERIOD,APOGEE,PERIGEE,DECAYED
50828.0,STARLINK-3290,PAYLOAD,2022-12-05 10:06:23,15.08853598,0.0002887,53.2156,112.4521,51.7802,308.3449,0.00036789,5.574e-05,0.0,0 STARLINK-3290,1 50828U 22001AB  22339.42110663  .00005574  00000-0  36789-3 0  9997,2 50828  53.2156 112.4521 0002887  51.7802 308.3449 15.08853598 50560,6917.839,95.437,541.701,537.707,0.0
50828.0,STARLINK-3290,PAYLOAD,2022-12-05 14:52:32,15.08852911,0.0002888,53.2155,111.5598,51.357,308.768,0.00025164,3.72e-05,0.0,0 STARLINK-3290,1 50828U 22001AB  22339.61982539  .00003720  00000-0  25164-3 0  9993,2 50828  53.2155 111.5598 0002888  51.3570 308.7680 15.08852911 50594,6917.840999999999,95.437,541.7040000000002,537.7080000000002,0.0
50828.0,STARLINK-3290,PAYLOAD,2022-12-06 11:32:33,15.088514300000002,0.0002716,53.215,107.6932,52.2977,307.8261,0.00010155,1.329e-05,0.0,0 STARLINK-3290,1 50828U 22001AB  22340.48093910  .00001329  00000-0  10155-3 0  9993,2 50828  53.2150 107.6932 0002716  52.2977 307.8261 15.08851430 50723,6917.845,95.437,541.589,537.832,0.0
50828.0,STARLINK-3290,PAYLOAD,2022-12-06 14:43:19,15.0883792,0.0002719,53.2165,107.1013,41.5782,318.5416,-0.00017427,-3.061e-05,0.0,0 STARLINK-3290,1 50828U 22001AB  22340.61342268 -.00003061  00000-0 -17427-3 0  9997,2 50828  53.2165 107.1013 0002719  41.5782 318.5416 15.08837920 52172,6917.887,95.438,541.633,537.871,0.0
50828.0,STARLINK-3290,PAYLOAD,2022-12-06 17:54:06,15.08837804,0.0002796,53.2158,106.5045,50.5624,309.5616,-0.00016486,-2.911e-05,0.0,0 STARLINK-3290,1 50828U 22001AB  22340.74590453 -.00002911  00000-0 -16486-3 0  9999,2 50828  53.2158 106.5045 0002796  50.5624 309.5616 15.08837804 50768,6917.887,95.438,541.686,537.818,0.0
50828.0,STARLINK-3290,PAYLOAD,2022-12-07 19:20:16,15.08842784,0.0002729,53.2163,101.7475,49.5976,310.5254,0.00010477,1.379e-05,0.0,0 STARLINK-3290,1 50828U 22001AB  22341.80574655  .00001379  00000-0  10477-3 0  9992,2 50828  53.2163 101.7475 0002729  49.5976 310.5254 15.08842784 50923,6917.871999999999,95.437,541.625,537.849,0.0
50828.0,STARLINK-3290,PAYLOAD,2022-12-07 20:55:39,15.08842246,0.000273,53.2161,101.4505,48.9084,311.2144,0.0001685,2.394e-05,0.0,0 STARLINK-3290,1 50828U 22001AB  22341.87198643  .00002394  00000-0  16850-3 0  9997,2 50828  53.2161 101.4505 0002730  48.9084 311.2144 15.08842246 52366,6917.874,95.437,541.627,537.85,0.0
50828.0,STARLINK-3290,PAYLOAD,2022-12-08 14:24:53,15.08865971,0.0002766,53.2163,98.1796,46.7693,313.353,0.00081883,0.00012777,0.0,0 STARLINK-3290,1 50828U 22001AB  22342.60061854  .00012777  00000-0  81883-3 0  9996,2 50828  53.2163  98.1796 0002766  46.7693 313.3530 15.08865971 51049,6917.801,95.436,541.5790000000002,537.753,0.0
50828.0,STARLINK-3290,PAYLOAD,2022-12-08 19:11:02,15.08857387,0.0002812,53.2161,97.2874,44.9798,315.1421,0.00053785,8.286e-05,0.0,0 STARLINK-3290,1 50828U 22001AB  22342.79933976  .00008286  00000-0  53785-3 0  9999,2 50828  53.2161  97.2874 0002812  44.9798 315.1421 15.08857387 51076,6917.8269999999975,95.436,541.638,537.747,0.0
50828.0,STARLINK-3290,PAYLOAD,2022-12-09 09:29:30,15.08848098,0.0002644,53.2166,94.6114,37.4176,322.7,-3.2518e-05,-8.06e-06,0.0,0 STARLINK-3290,1 50828U 22001AB  22343.39549503 -.00000806  00000-0 -32518-4 0  9999,2 50828  53.2166  94.6114 0002644  37.4176 322.7000 15.08848098 52593,6917.856,95.437,541.55,537.8919999999998,0.0
50828.0,STARLINK-3290,PAYLOAD,2022-12-09 17:26:26,15.0883029,0.0002702,53.2168,93.1247,41.8551,318.2647,-0.00037483,-6.248e-05,0.0,0 STARLINK-3290,1 50828U 22001AB  22343.72669987 -.00006248  00000-0 -37483-3 0  9996,2 50828  53.2168  93.1247 0002702  41.8551 318.2647 15.08830290 52645,6917.91,95.438,541.644,537.906,0.0
50828.0,STARLINK-3290,PAYLOAD,2022-12-10 12:31:05,15.08830973,0.0002545,53.2169,89.5561,40.6467,319.4714,0.00078098,0.0001216,0.0,0 STARLINK-3290,1 50828U 22001AB  22344.52158970  .00012160  00000-0  78098-3 0  9995,2 50828  53.2169  89.5561 0002545  40.6467 319.4714 15.08830973 51333,6917.908,95.438,541.534,538.012,0.0
50828.0,STARLINK-3290,PAYLOAD,2022-12-11 12:21:52,15.08850402,0.0002472,53.218,85.096,46.1364,313.9832,0.00055974,8.634e-05,0.0,0 STARLINK-3290,1 50828U 22001AB  22345.51518776  .00008634  00000-0  55974-3 0  9998,2 50828  53.2180  85.0960 0002472  46.1364 313.9832 15.08850402 51481,6917.849,95.437,541.424,538.004,0.0
50828.0,STARLINK-3290,PAYLOAD,2022-12-12 05:51:06,15.08846985,0.0002525,53.219,81.8266,51.8539,308.268,0.00024209,3.567e-05,0.0,0 STARLINK-3290,1 50828U 22001AB  22346.24382644  .00003567  00000-0  24209-3 0  9999,2 50828  53.2190  81.8266 0002525  51.8539 308.2680 15.08846985 53022,6917.859,95.437,541.471,537.977,0.0
50828.0,STARLINK-3290,PAYLOAD,2022-12-12 12:12:39,15.08841197,0.0002462,53.2188,80.6366,51.6238,308.4975,4.8293e-05,4.8e-06,0.0,0 STARLINK-3290,1 50828U 22001AB  22346.50878768  .00000480  00000-0  48293-4 0  9996,2 50828  53.2188  80.6366 0002462  51.6238 308.4975 15.08841197 51635,6917.877,95.437,541.445,538.039,0.0
50828.0,STARLINK-3290,PAYLOAD,2022-12-13 07:17:17,15.08837357,0.0002438,53.2152,77.0657,36.2168,323.8989,-2.2876e-05,-6.52e-06,0.0,0 STARLINK-3290,1 50828U 22001AB  22347.30367168 -.00000652  00000-0 -22876-4 0  9994,2 50828  53.2152  77.0657 0002438  36.2168 323.8989 15.08837357 53184,6917.888000000001,95.438,541.44,538.067,0.0
50828.0,STARLINK-3290,PAYLOAD,2022-12-13 10:28:03,15.08836575,0.0002445,53.2152,76.471,36.1739,323.9418,-3.1216e-05,-7.85e-06,0.0,0 STARLINK-3290,1 50828U 22001AB  22347.43615230 -.00000785  00000-0 -31216-4 0  9999,2 50828  53.2152  76.4710 0002445  36.1739 323.9418 15.08836575 51770,6917.891,95.438,541.447,538.064,0.0
50828.0,STARLINK-3290,PAYLOAD,2022-12-14 11:54:13,15.08843279,0.0002416,53.2158,71.714,32.0841,328.0298,0.00015647,2.203e-05,0.0,0 STARLINK-3290,1 50828U 22001AB  22348.49599138  .00002203  00000-0  15647-3 0  9998,2 50828  53.2158  71.7140 0002416  32.0841 328.0298 15.08843279 53366,6917.87,95.437,541.4069999999998,538.064,0.0
50828.0,STARLINK-3290,PAYLOAD,2022-12-14 13:29:36,15.08841883,0.0002407,53.2157,71.4168,30.1513,329.9617,0.00013947,1.932e-05,0.0,0 STARLINK-3290,1 50828U 22001AB  22348.56223213  .00001932  00000-0  13947-3 0  9993,2 50828  53.2157  71.4168 0002407  30.1513 329.9617 15.08841883 51943,6917.875,95.437,541.405,538.075,0.0
50828.0,STARLINK-3290,PAYLOAD,2022-12-15 06:58:51,15.08836399,0.0002276,53.2165,68.146,30.5989,329.5136,9.4491e-05,1.216e-05,0.0,0 STARLINK-3290,1 50828U 22001AB  22349.29087669  .00001216  00000-0  94491-4 0  9996,2 50828  53.2165  68.1460 0002276  30.5989 329.5136 15.08836399 53484,6917.891,95.438,541.331,538.182,0.0
50828.0,STARLINK-3290,PAYLOAD,2022-12-15 11:45:00,15.08841661,0.0002354,53.2164,67.25399999999999,30.6286,329.4843,0.00017101,2.435e-05,0.0,0 STARLINK-3290,1 50828U 22001AB  22349.48959482  .00002435  00000-0  17101-3 0  9994,2 50828  53.2164  67.2540 0002354  30.6286 329.4843 15.08841661 52087,6917.875,95.437,541.369,538.112,0.0
50828.0,STARLINK-3290,PAYLOAD,2022-12-15 14:55:47,15.08845322,0.0002346,53.2164,66.6591,30.8482,329.2648,0.00021931,3.204e-05,0.0,0 STARLINK-3290,1 50828U 22001AB  22349.62207309  .00003204  00000-0  21931-3 0  9995,2 50828  53.2164  66.6591 0002346  30.8482 329.2648 15.08845322 52109,6917.864000000001,95.437,541.352,538.106,0.0
50828.0,STARLINK-3290,PAYLOAD,2022-12-16 00:28:05,15.08849534,0.0002402,53.2164,64.8748,30.8474,329.2659,0.00015964,2.254e-05,0.0,0 STARLINK-3290,1 50828U 22001AB  22350.01951049  .00002254  00000-0  15964-3 0  9990,2 50828  53.2164  64.8748 0002402  30.8474 329.2659 15.08849534 53592,6917.851,95.437,541.378,538.055,0.0
50828.0,STARLINK-3290,PAYLOAD,2022-12-16 11:35:47,15.08840705,0.0002489,53.2166,62.7936,28.3708,331.742,1.2172e-05,-9.5e-07,0.0,0 STARLINK-3290,1 50828U 22001AB  22350.48319346 -.00000095  00000-0  12172-4 0  9990,2 50828  53.2166  62.7936 0002489  28.3708 331.7420 15.08840705 53660,6917.878000000002,95.438,541.465,538.021,0.0
50828.0,STARLINK-3290,PAYLOAD,2022-12-16 14:46:34,15.08840179,0.0002455,53.2173,62.1992,29.2841,330.8288,1.0541e-05,-1.21e-06,0.0,0 STARLINK-3290,1 50828U 22001AB  22350.61567384 -.00000121  00000-0  10541-4 0  9990,2 50828  53.2173  62.1992 0002455  29.2841 330.8288 15.08840179 52256,6917.88,95.438,541.443,538.047,0.0
50828.0,STARLINK-3290,PAYLOAD,2022-12-17 11:26:35,15.0882893,0.000246,53.2175,58.3333,28.1373,331.9751,-4.4411000000000006e-06,-3.59e-06,0.0,0 STARLINK-3290,1 50828U 22001AB  22351.47680411 -.00000359  00000-0 -44411-5 0  9990,2 50828  53.2175  58.3333 0002460  28.1373 331.9751 15.08828930 52380,6917.9140000000025,95.438,541.481,538.077,0.0
50828.0,STARLINK-3290,PAYLOAD,2022-12-17 13:01:58,15.08829792,0.0002484,53.2176,58.0363,27.2171,332.8951,1.2e-07,-2.86e-06,0.0,0 STARLINK-3290,1 50828U 22001AB  22351.54304387 -.00000286  00000-0  12000-6 0  9991,2 50828  53.2176  58.0363 0002484  27.2171 332.8951 15.08829792 52393,6917.9119999999975,95.438,541.495,538.058,0.0
50828.0,STARLINK-3290,PAYLOAD,2022-12-18 04:55:49,15.08843356,0.0002539,53.2177,55.0623,25.8442,334.2676,0.00010119,1.323e-05,0.0,0 STARLINK-3290,1 50828U 22001AB  22352.20543185  .00001323  00000-0  10119-3 0  9994,2 50828  53.2177  55.0623 0002539  25.8442 334.2676 15.08843356 53928,6917.87,95.437,541.492,537.979,0.0
50828.0,STARLINK-3290,PAYLOAD,2022-12-18 11:17:22,15.08824515,0.0002373,53.2175,53.8727,23.9995,336.1107,0.00026911,3.996e-05,0.0,0 STARLINK-3290,1 50828U 22001AB  22352.47040054  .00003996  00000-0  26911-3 0  9995,2 50828  53.2175  53.8727 0002373  23.9995 336.1107 15.08824515 53965,6917.928000000001,95.439,541.434,538.151,0.0
